start=new Date('2022-08-11T00:00:00.000Z').valueOf();
sats=[{"OBJECT_NAME":"STARLINK-1773","TLE_LINE2":"2 46679  53.0543 328.4194 0001320  67.8278 292.2851 15.06390934100436","CLASSIFICATION_TYPE":"U","REF_FRAME":"TEME","SITE":"AFETR","MEAN_ELEMENT_THEORY":"SGP4","RCS_SIZE":"LARGE","MEAN_MOTION_DOT":"-0.00000168","SEMIMAJOR_AXIS":"6925.376","MEAN_MOTION":"15.06390934","MEAN_MOTION_DDOT":"0.0000000000000","OBJECT_ID":"2020-073K","PERIOD":"95.593","CENTER_NAME":"EARTH","RA_OF_ASC_NODE":"328.4194","TLE_LINE1":"1 46679U 20073K   22222.81323685 -.00000168  00000-0  76346-5 0  9997","ECCENTRICITY":"0.00013200","GP_ID":"209994678","ELEMENT_SET_NO":"999","NORAD_CAT_ID":"46679","LAUNCH_DATE":"2020-10-18","DECAY_DATE":null,"COUNTRY_CODE":"US","APOAPSIS":"548.155","EPHEMERIS_TYPE":"0","EPOCH":"2022-08-10T19:31:03.663840","PERIAPSIS":"546.327","FILE":"3533963","ARG_OF_PERICENTER":"67.8278","TIME_SYSTEM":"UTC","INCLINATION":"53.0543","OBJECT_TYPE":"PAYLOAD","MEAN_ANOMALY":"292.2851","BSTAR":"0.00000763460000","REV_AT_EPOCH":"10043"},{"RA_OF_ASC_NODE":"3.7162","CENTER_NAME":"EARTH","TLE_LINE1":"1 46680U 20073L   22222.74920422 -.00002061  00000-0 -11953-3 0  9999","MEAN_MOTION_DDOT":"0.0000000000000","PERIOD":"95.593","OBJECT_ID":"2020-073L","MEAN_MOTION":"15.06392282","SEMIMAJOR_AXIS":"6925.372","MEAN_MOTION_DOT":"-0.00002061","MEAN_ELEMENT_THEORY":"SGP4","RCS_SIZE":"LARGE","REF_FRAME":"TEME","SITE":"AFETR","TLE_LINE2":"2 46680  53.0561   3.7162 0001582  89.9730 270.1440 15.06392282 99933","OBJECT_NAME":"STARLINK-1774","CLASSIFICATION_TYPE":"U","OBJECT_TYPE":"PAYLOAD","MEAN_ANOMALY":"270.1440","BSTAR":"-0.00011953000000","REV_AT_EPOCH":"9993","ARG_OF_PERICENTER":"89.9730","FILE":"3533963","INCLINATION":"53.0561","TIME_SYSTEM":"UTC","PERIAPSIS":"546.142","EPOCH":"2022-08-10T17:58:51.244608","APOAPSIS":"548.333","DECAY_DATE":null,"COUNTRY_CODE":"US","EPHEMERIS_TYPE":"0","NORAD_CAT_ID":"46680","LAUNCH_DATE":"2020-10-18","ELEMENT_SET_NO":"999","ECCENTRICITY":"0.00015820","GP_ID":"209995929"},{"APOAPSIS":"548.182","COUNTRY_CODE":"US","DECAY_DATE":null,"EPHEMERIS_TYPE":"0","NORAD_CAT_ID":"46681","LAUNCH_DATE":"2020-10-18","ELEMENT_SET_NO":"999","ECCENTRICITY":"0.00014010","GP_ID":"209967644","OBJECT_TYPE":"PAYLOAD","BSTAR":"-0.00003952400000","REV_AT_EPOCH":"9989","MEAN_ANOMALY":"282.4586","ARG_OF_PERICENTER":"77.6560","FILE":"3533800","INCLINATION":"53.0560","TIME_SYSTEM":"UTC","PERIAPSIS":"546.241","EPOCH":"2022-08-10T12:29:45.158784","MEAN_ELEMENT_THEORY":"SGP4","RCS_SIZE":"LARGE","REF_FRAME":"TEME","SITE":"AFETR","TLE_LINE2":"2 46681  53.0560   4.7282 0001401  77.6560 282.4586 15.06400610 99899","OBJECT_NAME":"STARLINK-1775","CLASSIFICATION_TYPE":"U","RA_OF_ASC_NODE":"4.7282","CENTER_NAME":"EARTH","TLE_LINE1":"1 46681U 20073M   22222.52066156 -.00000870  00000-0 -39524-4 0  9992","MEAN_MOTION_DDOT":"0.0000000000000","PERIOD":"95.592","OBJECT_ID":"2020-073M","MEAN_MOTION":"15.06400610","SEMIMAJOR_AXIS":"6925.347","MEAN_MOTION_DOT":"-0.00000870"},{"ELEMENT_SET_NO":"999","ECCENTRICITY":"0.00013730","GP_ID":"209994928","DECAY_DATE":null,"COUNTRY_CODE":"US","APOAPSIS":"548.195","EPHEMERIS_TYPE":"0","NORAD_CAT_ID":"46682","LAUNCH_DATE":"2020-10-18","PERIAPSIS":"546.294","EPOCH":"2022-08-10T19:29:04.322976","OBJECT_TYPE":"PAYLOAD","REV_AT_EPOCH":"9994","BSTAR":"0.00018653000000","MEAN_ANOMALY":"284.4742","FILE":"3533963","ARG_OF_PERICENTER":"75.6400","TIME_SYSTEM":"UTC","INCLINATION":"53.0570","OBJECT_NAME":"STARLINK-1776","TLE_LINE2":"2 46682  53.0570   3.4269 0001373  75.6400 284.4742 15.06389867 99943","CLASSIFICATION_TYPE":"U","MEAN_ELEMENT_THEORY":"SGP4","RCS_SIZE":"LARGE","REF_FRAME":"TEME","SITE":"AFETR","MEAN_MOTION":"15.06389867","SEMIMAJOR_AXIS":"6925.380","MEAN_MOTION_DOT":"0.00002497","CENTER_NAME":"EARTH","RA_OF_ASC_NODE":"3.4269","TLE_LINE1":"1 46682U 20073N   22222.81185559  .00002497  00000-0  18653-3 0  9998","MEAN_MOTION_DDOT":"0.0000000000000","OBJECT_ID":"2020-073N","PERIOD":"95.593"},{"RCS_SIZE":"LARGE","MEAN_ELEMENT_THEORY":"SGP4","SITE":"AFETR","REF_FRAME":"TEME","CLASSIFICATION_TYPE":"U","OBJECT_NAME":"STARLINK-1780","TLE_LINE2":"2 46684  53.0567 348.4832 0001457 105.1552 254.9598 15.06388063100153","TLE_LINE1":"1 46684U 20073Q   22222.80034859 -.00001151  00000-0 -58379-4 0  9993","CENTER_NAME":"EARTH","RA_OF_ASC_NODE":"348.4832","OBJECT_ID":"2020-073Q","PERIOD":"95.593","MEAN_MOTION_DDOT":"0.0000000000000","MEAN_MOTION":"15.06388063","SEMIMAJOR_AXIS":"6925.385","MEAN_MOTION_DOT":"-0.00001151","EPHEMERIS_TYPE":"0","COUNTRY_CODE":"US","DECAY_DATE":null,"APOAPSIS":"548.259","LAUNCH_DATE":"2020-10-18","NORAD_CAT_ID":"46684","ELEMENT_SET_NO":"999","GP_ID":"209995178","ECCENTRICITY":"0.00014570","BSTAR":"-0.00005837900000","MEAN_ANOMALY":"254.9598","REV_AT_EPOCH":"10015","OBJECT_TYPE":"PAYLOAD","TIME_SYSTEM":"UTC","INCLINATION":"53.0567","FILE":"3533963","ARG_OF_PERICENTER":"105.1552","PERIAPSIS":"546.241","EPOCH":"2022-08-10T19:12:30.118176"},{"TLE_LINE2":"2 46685  53.0544   3.2128 0001368  91.5536 268.5609 15.06382977 99940","OBJECT_NAME":"STARLINK-1781","CLASSIFICATION_TYPE":"U","MEAN_ELEMENT_THEORY":"SGP4","RCS_SIZE":"LARGE","REF_FRAME":"TEME","SITE":"AFETR","MEAN_MOTION":"15.06382977","MEAN_MOTION_DOT":"-0.00000035","SEMIMAJOR_AXIS":"6925.401","RA_OF_ASC_NODE":"3.2128","CENTER_NAME":"EARTH","TLE_LINE1":"1 46685U 20073R   22222.85514831 -.00000035  00000-0  16524-4 0  9997","MEAN_MOTION_DDOT":"0.0000000000000","PERIOD":"95.593","OBJECT_ID":"2020-073R","ELEMENT_SET_NO":"999","ECCENTRICITY":"0.00013680","GP_ID":"209995430","APOAPSIS":"548.213","COUNTRY_CODE":"US","DECAY_DATE":null,"EPHEMERIS_TYPE":"0","NORAD_CAT_ID":"46685","LAUNCH_DATE":"2020-10-18","PERIAPSIS":"546.318","EPOCH":"2022-08-10T20:31:24.813984","OBJECT_TYPE":"PAYLOAD","REV_AT_EPOCH":"9994","BSTAR":"0.00001652400000","MEAN_ANOMALY":"268.5609","ARG_OF_PERICENTER":"91.5536","FILE":"3533963","INCLINATION":"53.0544","TIME_SYSTEM":"UTC"},{"NORAD_CAT_ID":"46686","LAUNCH_DATE":"2020-10-18","DECAY_DATE":null,"COUNTRY_CODE":"US","APOAPSIS":"548.221","EPHEMERIS_TYPE":"0","ECCENTRICITY":"0.00013920","GP_ID":"209994906","ELEMENT_SET_NO":"999","FILE":"3533963","ARG_OF_PERICENTER":"85.0945","TIME_SYSTEM":"UTC","INCLINATION":"53.0569","OBJECT_TYPE":"PAYLOAD","REV_AT_EPOCH":"9993","BSTAR":"-0.00016334000000","MEAN_ANOMALY":"275.0203","EPOCH":"2022-08-10T18:24:01.648800","PERIAPSIS":"546.293","REF_FRAME":"TEME","SITE":"AFETR","MEAN_ELEMENT_THEORY":"SGP4","RCS_SIZE":"LARGE","OBJECT_NAME":"STARLINK-1783","TLE_LINE2":"2 46686  53.0569   3.5832 0001392  85.0945 275.0203 15.06385719 99931","CLASSIFICATION_TYPE":"U","MEAN_MOTION_DDOT":"0.0000000000000","OBJECT_ID":"2020-073S","PERIOD":"95.593","CENTER_NAME":"EARTH","RA_OF_ASC_NODE":"3.5832","TLE_LINE1":"1 46686U 20073S   22222.76668575 -.00002713  00000-0 -16334-3 0  9997","SEMIMAJOR_AXIS":"6925.392","MEAN_MOTION_DOT":"-0.00002713","MEAN_MOTION":"15.06385719"},{"LAUNCH_DATE":"2020-10-18","NORAD_CAT_ID":"46687","EPHEMERIS_TYPE":"0","COUNTRY_CODE":"US","DECAY_DATE":null,"APOAPSIS":"548.352","GP_ID":"209994429","ECCENTRICITY":"0.00015420","ELEMENT_SET_NO":"999","TIME_SYSTEM":"UTC","INCLINATION":"53.0549","FILE":"3533963","ARG_OF_PERICENTER":"71.3442","BSTAR":"-0.00028398000000","MEAN_ANOMALY":"288.7714","REV_AT_EPOCH":"10041","OBJECT_TYPE":"PAYLOAD","EPOCH":"2022-08-10T16:35:55.130784","PERIAPSIS":"546.217","SITE":"AFETR","REF_FRAME":"TEME","RCS_SIZE":"LARGE","MEAN_ELEMENT_THEORY":"SGP4","CLASSIFICATION_TYPE":"U","OBJECT_NAME":"STARLINK-1784","TLE_LINE2":"2 46687  53.0549 328.9724 0001542  71.3442 288.7714 15.06376880100414","OBJECT_ID":"2020-073T","PERIOD":"95.594","MEAN_MOTION_DDOT":"0.0000000000000","TLE_LINE1":"1 46687U 20073T   22222.69161031 -.00004506  00000-0 -28398-3 0  9990","CENTER_NAME":"EARTH","RA_OF_ASC_NODE":"328.9724","SEMIMAJOR_AXIS":"6925.419","MEAN_MOTION_DOT":"-0.00004506","MEAN_MOTION":"15.06376880"},{"INCLINATION":"53.0582","TIME_SYSTEM":"UTC","ARG_OF_PERICENTER":"111.1050","FILE":"3533963","MEAN_ANOMALY":"249.0082","BSTAR":"0.00014020000000","REV_AT_EPOCH":"10118","OBJECT_TYPE":"PAYLOAD","EPOCH":"2022-08-10T18:46:31.911456","PERIAPSIS":"546.047","LAUNCH_DATE":"2020-10-18","NORAD_CAT_ID":"46689","EPHEMERIS_TYPE":"0","APOAPSIS":"547.900","COUNTRY_CODE":"US","DECAY_DATE":null,"GP_ID":"209994679","ECCENTRICITY":"0.00013380","ELEMENT_SET_NO":"999","PERIOD":"95.587","OBJECT_ID":"2020-073V","MEAN_MOTION_DDOT":"0.0000000000000","TLE_LINE1":"1 46689U 20073V   22222.78231379  .00001812  00000-0  14020-3 0  9997","RA_OF_ASC_NODE":"3.5526","CENTER_NAME":"EARTH","SEMIMAJOR_AXIS":"6925.109","MEAN_MOTION_DOT":"0.00001812","MEAN_MOTION":"15.06478232","SITE":"AFETR","REF_FRAME":"TEME","RCS_SIZE":"LARGE","MEAN_ELEMENT_THEORY":"SGP4","CLASSIFICATION_TYPE":"U","TLE_LINE2":"2 46689  53.0582   3.5526 0001338 111.1050 249.0082 15.06478232101187","OBJECT_NAME":"STARLINK-1788"},{"GP_ID":"209995930","ECCENTRICITY":"0.00012670","ELEMENT_SET_NO":"999","LAUNCH_DATE":"2020-10-18","NORAD_CAT_ID":"46690","EPHEMERIS_TYPE":"0","APOAPSIS":"548.138","COUNTRY_CODE":"US","DECAY_DATE":null,"EPOCH":"2022-08-10T18:47:16.740096","PERIAPSIS":"546.383","INCLINATION":"53.0567","TIME_SYSTEM":"UTC","FILE":"3533963","ARG_OF_PERICENTER":"108.1997","MEAN_ANOMALY":"251.9130","BSTAR":"-0.00019602000000","REV_AT_EPOCH":"10028","OBJECT_TYPE":"PAYLOAD","CLASSIFICATION_TYPE":"U","TLE_LINE2":"2 46690  53.0567 338.5573 0001267 108.1997 251.9130 15.06384749100287","OBJECT_NAME":"STARLINK-1789","SITE":"AFETR","REF_FRAME":"TEME","RCS_SIZE":"LARGE","MEAN_ELEMENT_THEORY":"SGP4","SEMIMAJOR_AXIS":"6925.395","MEAN_MOTION_DOT":"-0.00003199","MEAN_MOTION":"15.06384749","PERIOD":"95.593","OBJECT_ID":"2020-073W","MEAN_MOTION_DDOT":"0.0000000000000","TLE_LINE1":"1 46690U 20073W   22222.78283264 -.00003199  00000-0 -19602-3 0  9992","RA_OF_ASC_NODE":"338.5573","CENTER_NAME":"EARTH"}];
